OBJECT B                
1 51825U 22019B   24365.91172003  .00030939  00000+0  10164-2 0  9995
2 51825  97.4082  75.8218 0010679 263.7574  96.2451 15.31454464157233
